[{"OBJECT_NAME":"STRIX-4","OBJECT_ID":"2024-137A","EPOCH":"2026-03-09T15:41:49.501824","MEAN_MOTION":15.29026224,"ECCENTRICITY":0.00168396,"INCLINATION":43.0134,"RA_OF_ASC_NODE":129.8162,"ARG_OF_PERICENTER":5.2738,"MEAN_ANOMALY":354.8289,"EPHEMERIS_TYPE":0,"CLASSIFICATION_TYPE":"U","NORAD_CAT_ID":60352,"ELEMENT_SET_NO":999,"REV_AT_EPOCH":8876,"BSTAR":0.00071819834,"MEAN_MOTION_DOT":0.0002053,"MEAN_MOTION_DDOT":0},{"OBJECT_NAME":"STARLINK-34143","OBJECT_ID":"2025-095G","EPOCH":"2026-03-09T07:53:14.854560","MEAN_MOTION":15.27591094,"ECCENTRICITY":3.309e-5,"INCLINATION":42.9961,"RA_OF_ASC_NODE":178.1631,"ARG_OF_PERICENTER":216.7211,"MEAN_ANOMALY":143.3618,"EPHEMERIS_TYPE":0,"CLASSIFICATION_TYPE":"U","NORAD_CAT_ID":63896,"ELEMENT_SET_NO":999,"REV_AT_EPOCH":4773,"BSTAR":0.0014702704,"MEAN_MOTION_DOT":0.00040432,"MEAN_MOTION_DDOT":0}]
