STRIX-4                 
1 60352U 24137A   26068.65404516  .00020530  00000+0  71820-3 0  9996
2 60352  43.0134 129.8162 0016840   5.2738 354.8289 15.29026223 88766
STARLINK-34143          
1 63896U 25095G   26068.32864415  .00040432  00000+0  14703-2 0  9997
2 63896  42.9961 178.1631 0000330 216.7211 143.3618 15.27591094 47738
